     2.10           G: GLONASS NAV DATA                     RINEX VERSION / TYPE
teqc  2015Jun23                         20210913 01:26:14UTCPGM / RUN BY / DATE
Linux 2.4.21-27.ELsmp|Opteron|gcc -static|Linux x86_64|=+   COMMENT
  2021     8    20   -9.313225746155D-10                    CORR TO SYSTEM TIME
                                                            END OF HEADER
 8 21  8 21  2 15  0.0-6.049219518900D-05-0.000000000000D+00 7.200000000000D+03
   -1.031478320312D+04-8.266639709473D-01-2.793967723846D-09 0.000000000000D+00
    2.067544384766D+04 1.241640090942D+00 9.313225746155D-10 6.000000000000D+00
   -1.078072900391D+04 3.154649734497D+00 2.793967723846D-09 0.000000000000D+00
10 21  8 21  2 15  0.0-7.416214793921D-05-0.000000000000D+00 7.200000000000D+03
   -8.284093750000D+03-1.110383033752D+00-0.000000000000D+00 0.000000000000D+00
    8.453278320312D+03-2.887427330017D+00-0.000000000000D+00-7.000000000000D+00
   -2.260324414062D+04-6.667308807373D-01 2.793967723846D-09 0.000000000000D+00
12 21  8 21  2 15  0.0 2.553407102823D-04 3.637978807092D-12 7.200000000000D+03
    1.132375927734D+04 4.072227478027D-01-2.793967723846D-09 0.000000000000D+00
    2.223004785156D+04 6.282653808594D-01-0.000000000000D+00-1.000000000000D+00
    5.388886230469D+03-3.467149734497D+00 0.000000000000D+00 0.000000000000D+00
 7 21  8 21  2 45  0.0-4.159007221460D-05 0.000000000000D+00 9.000000000000D+03
   -1.630845800781D+04 9.573240280151D-01-2.793967723846D-09 0.000000000000D+00
    1.587631103516D+04-1.266242027283D+00 4.656612873077D-09 5.000000000000D+00
    1.159878906250D+04 3.084162712097D+00 9.313225746155D-10 0.000000000000D+00
 1 21  8 21  2 45  0.0 8.414965122938D-05 0.000000000000D+00 9.000000000000D+03
   -7.030854492188D+02-1.163329124451D+00-1.862645149231D-09 0.000000000000D+00
    1.816331933594D+04 2.157363891602D+00 0.000000000000D+00 1.000000000000D+00
   -1.789153515625D+04 2.237130165100D+00 2.793967723846D-09 0.000000000000D+00
 8 21  8 21  2 45  0.0-6.049219518900D-05-0.000000000000D+00 9.000000000000D+03
   -1.122710742188D+04-2.081546783447D-01-2.793967723846D-09 0.000000000000D+00
    2.240742480469D+04 6.461305618286D-01 2.793967723846D-09 6.000000000000D+00
   -4.758614257812D+03 3.493023872375D+00 2.793967723846D-09 0.000000000000D+00
12 21  8 21  2 45  0.0 2.553435042500D-04 2.728484105319D-12 9.000000000000D+03
    1.179018750000D+04 7.209777832031D-02-2.793967723846D-09 0.000000000000D+00
    2.260673876953D+04-1.972818374634D-01 0.000000000000D+00-1.000000000000D+00
   -9.794995117188D+02-3.562955856323D+00 9.313225746155D-10 0.000000000000D+00
 7 21  8 21  3 15  0.0-4.158820956945D-05 0.000000000000D+00 1.080000000000D+04
   -1.447209667969D+04 1.039712905884D+00-1.862645149231D-09 0.000000000000D+00
    1.290752148438D+04-2.019393920898D+00 4.656612873077D-09 5.000000000000D+00
    1.663245410156D+04 2.472684860229D+00 0.000000000000D+00 0.000000000000D+00
 1 21  8 21  3 15  0.0 8.415058255196D-05 0.000000000000D+00 1.080000000000D+04
   -2.277190429688D+03-5.962924957275D-01-1.862645149231D-09 0.000000000000D+00
    2.168758837891D+04 1.713739395142D+00 1.862645149231D-09 1.000000000000D+00
   -1.322480419922D+04 2.914473533630D+00 2.793967723846D-09 0.000000000000D+00
 8 21  8 21  3 15  0.0-6.049312651157D-05-0.000000000000D+00 1.080000000000D+04
   -1.116617480469D+04 2.414083480835D-01-2.793967723846D-09 0.000000000000D+00
    2.289366894531D+04-1.280670166016D-01 3.725290298462D-09 6.000000000000D+00
    1.631520996094D+03 3.561044692993D+00 1.862645149231D-09 0.000000000000D+00
12 21  8 21  3 15  0.0 2.553490921855D-04 2.728484105319D-12 1.080000000000D+04
    1.145886181641D+04-4.691305160522D-01-2.793967723846D-09 0.000000000000D+00
    2.159632031250D+04-8.961286544800D-01 0.000000000000D+00-1.000000000000D+00
   -7.272117675781D+03-3.383419990540D+00 1.862645149231D-09 0.000000000000D+00
13 21  8 21  3 15  0.0-5.946308374405D-05-0.000000000000D+00 1.104000000000D+04
    1.754263378906D+04 9.014215469360D-01-2.793967723846D-09 0.000000000000D+00
    1.580106640625D+04 9.765462875366D-01 0.000000000000D+00-2.000000000000D+00
    9.643382324219D+03-3.237524032593D+00-0.000000000000D+00 0.000000000000D+00
22 21  8 21  3 15  0.0-1.289546489716D-04-9.094947017729D-13 1.257000000000D+04
   -1.375302001953D+04-2.606152534485D+00-1.862645149231D-09 0.000000000000D+00
    9.760456542969D+03 3.706426620483D-01 4.656612873077D-09-3.000000000000D+00
    1.915314013672D+04-2.050182342529D+00 0.000000000000D+00 0.000000000000D+00
13 21  8 21  3 45  0.0-5.946401506662D-05-0.000000000000D+00 1.260000000000D+04
    1.878993212891D+04 4.451608657837D-01-2.793967723846D-09 0.000000000000D+00
    1.688383251953D+04 2.404804229736D-01 9.313225746155D-10-2.000000000000D+00
    3.518133789062D+03-3.524080276489D+00 9.313225746155D-10 0.000000000000D+00
 1 21  8 21  3 45  0.0 8.415151387453D-05 0.000000000000D+00 1.260000000000D+04
   -2.917708984375D+03-1.417522430420D-01-1.862645149231D-09 0.000000000000D+00
    2.418855175781D+04 1.031050682068D+00 2.793967723846D-09 1.000000000000D+00
   -7.534977539062D+03 3.366492271423D+00 2.793967723846D-09 0.000000000000D+00
 7 21  8 21  3 45  0.0-4.158727824688D-05 0.000000000000D+00 1.260000000000D+04
   -1.271285693359D+04 8.779153823853D-01-9.313225746155D-10 0.000000000000D+00
    8.686236816406D+03-2.640232086182D+00 4.656612873077D-09 5.000000000000D+00
    2.038607275391D+04 1.671054840088D+00-0.000000000000D+00 0.000000000000D+00
 8 21  8 21  3 45  0.0-6.049312651157D-05 0.000000000000D+00 1.260000000000D+04
   -1.049700878906D+04 4.607934951782D-01-1.862645149231D-09 0.000000000000D+00
    2.189862939453D+04-9.813480377197D-01 4.656612873077D-09 6.000000000000D+00
    7.895852539062D+03 3.354284286499D+00 1.862645149231D-09 0.000000000000D+00
12 21  8 21  3 45  0.0 2.553546801209D-04 2.728484105319D-12 1.260000000000D+04
    1.002376123047D+04-1.138733863831D+00-1.862645149231D-09 0.000000000000D+00
    1.950941503906D+04-1.381660461426D+00 0.000000000000D+00-1.000000000000D+00
   -1.300221484375D+04-2.941911697388D+00 2.793967723846D-09 0.000000000000D+00
22 21  8 21  3 45  0.0-1.289658248425D-04-9.094947017729D-13 1.260000000000D+04
   -1.787210986328D+04-1.936323165894D+00-0.000000000000D+00 0.000000000000D+00
    1.069166650391D+04 6.295185089111D-01 4.656612873077D-09-3.000000000000D+00
    1.477137548828D+04-2.786725997925D+00 0.000000000000D+00 0.000000000000D+00
 2 21  8 21  3 45  0.0 4.904177039862D-04 9.094947017729D-13 1.383000000000D+04
    7.492179199219D+03-8.253736495972D-01-9.313225746155D-10 0.000000000000D+00
    1.072369238281D+04 2.888993263245D+00-9.313225746155D-10-4.000000000000D+00
   -2.187154589844D+04 1.126036643982D+00 2.793967723846D-09 0.000000000000D+00
13 21  8 21  4 15  0.0-5.946494638920D-05-0.000000000000D+00 1.440000000000D+04
    1.902227050781D+04-2.147579193115D-01-2.793967723846D-09 0.000000000000D+00
    1.674706347656D+04-3.626842498779D-01 9.313225746155D-10-2.000000000000D+00
   -2.879289550781D+03-3.537989616394D+00 1.862645149231D-09 0.000000000000D+00
 1 21  8 21  4 15  0.0 8.415244519711D-05 0.000000000000D+00 1.440000000000D+04
   -2.903688964844D+03 1.203823089600D-01-1.862645149231D-09 0.000000000000D+00
    2.530442578125D+04 1.910018920898D-01 4.656612873077D-09 1.000000000000D+00
   -1.262102050781D+03 3.558074951172D+00 2.793967723846D-09 0.000000000000D+00
 2 21  8 21  4 15  0.0 4.904195666313D-04 9.094947017729D-13 1.440000000000D+04
    6.456834960938D+03-3.321065902710D-01-9.313225746155D-10 0.000000000000D+00
    1.570192382812D+04 2.592810630798D+00 0.000000000000D+00-4.000000000000D+00
   -1.902365087891D+04 2.017498970032D+00 2.793967723846D-09 0.000000000000D+00
 8 21  8 21  4 15  0.0-6.049219518900D-05 0.000000000000D+00 1.440000000000D+04
   -9.657660156250D+03 4.311370849609D-01-9.313225746155D-10 0.000000000000D+00
    1.938217675781D+04-1.799143791199D+00 5.587935447693D-09 6.000000000000D+00
    1.355168945312D+04 2.889422416687D+00 9.313225746155D-10 0.000000000000D+00
12 21  8 21  4 15  0.0 2.553593367338D-04 2.728484105319D-12 1.440000000000D+04
    7.344428710938D+03-1.833019256592D+00-9.313225746155D-10 0.000000000000D+00
    1.678118164062D+04-1.603975296021D+00 0.000000000000D+00-1.000000000000D+00
   -1.772570947266D+04-2.272188186646D+00 2.793967723846D-09 0.000000000000D+00
22 21  8 21  4 15  0.0-1.289676874876D-04-9.094947017729D-13 1.440000000000D+04
   -2.063132958984D+04-1.113133430481D+00 0.000000000000D+00 0.000000000000D+00
    1.188515673828D+04 6.538696289062D-01 4.656612873077D-09-3.000000000000D+00
    9.250668457031D+03-3.307595252991D+00 9.313225746155D-10 0.000000000000D+00
23 21  8 21  4 15  0.0-1.197867095470D-05-0.000000000000D+00 1.527000000000D+04
   -1.472265625000D+03-2.921673774719D+00-9.313225746155D-10 0.000000000000D+00
    1.135727050781D+04 1.118162155151D+00 4.656612873077D-09 3.000000000000D+00
    2.277826416016D+04-7.465591430664D-01-0.000000000000D+00 0.000000000000D+00
13 21  8 21  4 45  0.0-5.946587771177D-05-0.000000000000D+00 1.620000000000D+04
    1.794551660156D+04-9.927120208740D-01-1.862645149231D-09 0.000000000000D+00
    1.570615917969D+04-7.538442611694D-01 9.313225746155D-10-2.000000000000D+00
   -9.054037597656D+03-3.278294563293D+00 1.862645149231D-09 0.000000000000D+00
 1 21  8 21  4 45  0.0 8.415337651968D-05 0.000000000000D+00 1.620000000000D+04
   -2.626630859375D+03 1.468458175659D-01-9.313225746155D-10 0.000000000000D+00
    2.484612207031D+04-6.988124847412D-01 5.587935447693D-09 1.000000000000D+00
    5.108450195312D+03 3.474308967590D+00 1.862645149231D-09 0.000000000000D+00
 2 21  8 21  4 45  0.0 4.904214292765D-04 9.094947017729D-13 1.620000000000D+04
    6.239897460938D+03 6.731224060059D-02-9.313225746155D-10 0.000000000000D+00
    1.989238818359D+04 2.022353172302D+00 1.862645149231D-09-4.000000000000D+00
   -1.470319238281D+04 2.751646995544D+00 2.793967723846D-09 0.000000000000D+00
